2022-043B               
1 52321U 22043B   22138.13811797  .00031955  00000+0  12775-2 0  9993
2 52321  97.4722 213.7559 0013470 215.9780 230.2359 15.24961819  2894
2022-043C               
1 52322U 22043C   22137.81191241  .00009439  00000+0  38492-3 0  9990
2 52322  97.4732 213.4308 0013123 220.4203 235.5657 15.24583786  2848
2022-043D               
1 52323U 22043D   22138.14271365  .00018173  00000+0  33340-3 0  9996
2 52323  97.5646 214.6948 0087776 316.4645  99.8604 15.45079586  2932
2022-043E               
1 52324U 22043E   22138.22719916  .00101493  00000+0  36136-2 0  9998
2 52324  97.4637 213.9013 0020584 238.0748 150.5948 15.28335116  2913
2022-043F               
1 52325U 22043F   22137.82641612  .00049335  00000+0  28951-2 0  9993
2 52325  97.2203 212.3735 0111257 151.4508 209.2891 15.06413340  2804
2022-043G               
1 52326U 22043G   22137.93180459  .00021149  00000+0  18761-2 0  9994
2 52326  97.2952 212.1151 0158929 101.6820 260.2365 14.86932729  2781
2022-043H               
1 52327U 22043H   22137.90179758  .00033842  00000+0  20004-2 0  9998
2 52327  97.7065 213.4903 0119443 153.6402 207.1174 15.05498794  2826
2022-043J               
1 52328U 22043J   22138.07437712  .00025845  00000+0  23094-2 0  9991
2 52328  97.7293 213.1569 0161401 102.8736 259.0676 14.86360851  2791
COSMOS 2555             
1 52330U 22044A   22137.92885820  .36184717  20708-5  19147-3 0  9996
2 52330  96.4215 227.9004 0014098 228.6893 132.3826 16.55086891  2899
STARLINK-3889           
1 52331U 22045A   22138.25001157 -.00720148  00000+0 -64377-2 0  9996
2 52331  53.2174 345.4155 0001185 120.2191 197.9606 15.69841088  5436
STARLINK-3831           
1 52332U 22045B   22137.91668981 -.00718619  00000+0 -62908-2 0  9991
2 52332  53.2173 347.0571 0001225  80.4433 150.7304 15.70336064  1306
STARLINK-3847           
1 52333U 22045C   22138.25001157 -.00720162  00000+0 -64404-2 0  9995
2 52333  53.2174 345.4130 0001160 114.9117 202.0049 15.69831779  5426
STARLINK-3880           
1 52334U 22045D   22137.91668981 -.00718671  00000+0 -62864-2 0  9992
2 52334  53.2173 347.0602 0001213  86.2361 147.4423 15.70354662  1303
STARLINK-3814           
1 52335U 22045E   22138.25001157 -.00720089  00000+0 -64348-2 0  9992
2 52335  53.2174 345.4175 0001104 108.6775 210.7652 15.69850321  5436
STARLINK-3823           
1 52336U 22045F   22137.91668981 -.00718673  00000+0 -62839-2 0  9998
2 52336  53.2174 347.0634 0001230  77.7475 157.1829 15.70364073  1306
STARLINK-3797           
1 52337U 22045G   22138.25001157 -.00720172  00000+0 -64392-2 0  9996
2 52337  53.2174 345.4140 0001178 119.5535 197.9947 15.69836461  5438
STARLINK-3815           
1 52338U 22045H   22137.91668981 -.00718703  00000+0 -62805-2 0  9997
2 52338  53.2174 347.0657 0001232  80.9316 155.8766 15.70378017  1303
STARLINK-3792           
1 52339U 22045J   22137.91668981 -.00718740  00000+0 -62821-2 0  9997
2 52339  53.2174 347.0652 0001218  82.2629 153.9194 15.70373399  1307
STARLINK-3818           
1 52340U 22045K   22137.91668981  .00088839  00000+0  63151-3 0  9994
2 52340  53.2144 347.0411 0001338  89.6731 158.5838 15.73170950  1304
STARLINK-3843           
1 52341U 22045L   22137.91668981 -.00718741  00000+0 -62833-2 0  9994
2 52341  53.2174 347.0643 0001233  93.5447 142.0117 15.70368755  1304
STARLINK-3850           
1 52342U 22045M   22138.25001157 -.00072818  00000+0 -51770-3 0  9996
2 52342  53.2145 345.3873 0001186  90.2408 248.0838 15.73254714  5434
STARLINK-3849           
1 52343U 22045N   22137.91668981 -.00718777  00000+0 -62797-2 0  9994
2 52343  53.2174 347.0795 0001229  80.3906 157.0420 15.70383714  1308
STARLINK-3851           
1 52344U 22045P   22137.91668981  .00000036  00000+0  46681-5 0  9992
2 52344  53.2143 347.0359 0001127  91.2089 159.4889 15.73203328  1301
STARLINK-3852           
1 52345U 22045Q   22137.91668981 -.00013090  00000+0 -89076-4 0  9993
2 52345  53.2127 347.0424 0001017  97.2390 150.4925 15.73180649  1308
STARLINK-3812           
1 52346U 22045R   22137.91668981 -.00040149  00000+0 -28302-3 0  9993
2 52346  53.2142 347.0350 0001047  88.1651 163.1207 15.73199907  1307
STARLINK-3826           
1 52347U 22045S   22138.25001157 -.00063836  00000+0 -45311-3 0  9995
2 52347  53.2145 345.3893 0001104  82.7197 255.0277 15.73239659  5438
STARLINK-3829           
1 52348U 22045T   22137.91668981 -.00029922  00000+0 -20958-3 0  9990
2 52348  53.2142 347.0319 0001168  77.5481 174.9658 15.73195563  1305
STARLINK-3819           
1 52349U 22045U   22138.25001157 -.00076552  00000+0 -54512-3 0  9999
2 52349  53.2132 345.3864 0001156  90.3253 248.5965 15.73237459  5436
STARLINK-3754           
1 52350U 22045V   22137.91668981 -.00002919  00000+0 -16403-4 0  9991
2 52350  53.2141 347.0313 0001192  95.1807 157.8402 15.73184702  1306
STARLINK-3816           
1 52351U 22045W   22137.91668981 -.00017053  00000+0 -11737-3 0  9991
2 52351  53.2142 347.0342 0001142  82.6110 169.2298 15.73193027  1303
STARLINK-3838           
1 52352U 22045X   22138.25001157  .00042073  00000+0  30295-3 0  9994
2 52352  53.2141 345.3760 0000826  88.7345 254.9883 15.73179853  5434
STARLINK-3807           
1 52353U 22045Y   22137.91668981 -.00017319  00000+0 -11927-3 0  9999
2 52353  53.2142 347.0298 0000931  96.6284 156.9998 15.73194545  1303
STARLINK-3876           
1 52354U 22045Z   22137.91668981 -.00012807  00000+0 -86990-4 0  9990
2 52354  53.2139 347.0221 0001093  91.7016 165.5076 15.73195481  1308
STARLINK-3877           
1 52355U 22045AA  22138.25001157  .00027167  00000+0  19772-3 0  9991
2 52355  53.2143 345.3774 0001151  91.5727 251.5271 15.73156649  5434
STARLINK-3801           
1 52356U 22045AB  22137.91668981 -.00027024  00000+0 -18871-3 0  9991
2 52356  53.2145 347.0246 0001215 101.8200 154.1531 15.73204661  1309
STARLINK-3821           
1 52357U 22045AC  22137.91668981 -.00020313  00000+0 -14061-3 0  9993
2 52357  53.2140 347.0260 0001344  96.2957 159.1590 15.73207705  1302
STARLINK-3837           
1 52358U 22045AD  22137.91668981 -.00026345  00000+0 -18376-3 0  9998
2 52358  53.2138 347.0183 0001231  98.5323 160.4199 15.73215007  1305
STARLINK-3853           
1 52359U 22045AE  22137.91668981  .00009699  00000+0  73494-4 0  9993
2 52359  53.2140 347.0233 0001039  96.8692 159.8103 15.73181546  1308
STARLINK-3824           
1 52360U 22045AF  22137.91668981  .00075055  00000+0  53589-3 0  9996
2 52360  53.2137 347.0157 0001267  95.1098 165.0900 15.73135525  1306
STARLINK-3728           
1 52361U 22045AG  22137.91668981  .00030768  00000+0  22305-3 0  9991
2 52361  53.2140 347.0208 0001181  95.3064 162.5220 15.73177135  1308
STARLINK-3848           
1 52362U 22045AH  22137.91668981 -.00038507  00000+0 -27096-3 0  9995
2 52362  53.2138 347.0146 0001210 104.5206 156.1996 15.73220912  1302
STARLINK-3830           
1 52363U 22045AJ  22137.91668981 -.00063599  00000+0 -45225-3 0  9999
2 52363  53.2140 347.0194 0001023 101.3811 157.0739 15.73196121  1307
STARLINK-3820           
1 52364U 22045AK  22137.91668981 -.00028740  00000+0 -20112-3 0  9997
2 52364  53.2138 347.0119 0000947 102.7865 159.1931 15.73193900  1309
STARLINK-3874           
1 52365U 22045AL  22137.91668981  .00073436  00000+0  52397-3 0  9998
2 52365  53.2139 347.0172 0001227  99.8838 159.6983 15.73160619  1301
STARLINK-3808           
1 52366U 22045AM  22137.91668981 -.00035941  00000+0 -25278-3 0  9998
2 52366  53.2137 347.0090 0001024 103.7152 159.4949 15.73198819  1301
STARLINK-3817           
1 52367U 22045AN  22137.91668981 -.00040641  00000+0 -28655-3 0  9994
2 52367  53.2137 347.0136 0000942 103.5773 157.8092 15.73200885  1306
STARLINK-3834           
1 52368U 22045AP  22138.25001157 -.00071532  00000+0 -50848-3 0  9991
2 52368  53.2137 345.3548 0001243 105.3871 248.4321 15.73250762  5427
STARLINK-3841           
1 52369U 22045AQ  22137.91668981  .00077262  00000+0  55148-3 0  9990
2 52369  53.2137 347.0109 0001364  99.0529 163.5618 15.73131032  1300
STARLINK-3827           
1 52370U 22045AR  22137.91668981  .00005629  00000+0  44580-4 0  9999
2 52370  53.2136 347.0079 0001150  95.2875 168.5496 15.73154373  1304
STARLINK-3798           
1 52371U 22045AS  22137.91668981 -.00032176  00000+0 -22577-3 0  9990
2 52371  53.2136 347.0073 0000937 103.9060 160.4211 15.73195117  1301
STARLINK-3796           
1 52372U 22045AT  22137.91668981 -.00029236  00000+0 -20481-3 0  9996
2 52372  53.2134 347.0027 0001216  92.6343 173.5433 15.73177502  1307
STARLINK-3550           
1 52373U 22045AU  22137.91668981  .00025786  00000+0  18761-3 0  9999
2 52373  53.2135 347.0012 0001228 104.6036 162.7187 15.73196262  1309
STARLINK-3762           
1 52374U 22045AV  22137.91668981  .00081926  00000+0  58332-3 0  9996
2 52374  53.2133 347.0015 0001362  99.6741 167.0923 15.73165677  1308
STARLINK-3785           
1 52375U 22045AW  22137.91668981 -.00033604  00000+0 -23620-3 0  9991
2 52375  53.2136 347.0041 0001072  93.5083 172.1031 15.73178047  1303
STARLINK-3767           
1 52376U 22045AX  22138.25001157  .00042574  00000+0  30639-3 0  9998
2 52376  53.2134 345.3470 0001169  98.9350 258.4676 15.73187129  5434
STARLINK-3805           
1 52377U 22045AY  22138.25001157  .00043366  00000+0  31199-3 0  9991
2 52377  53.2135 345.3487 0000860  93.9726 262.8694 15.73186347  5422
STARLINK-3806           
1 52378U 22045AZ  22137.91668981  .00078657  00000+0  56059-3 0  9991
2 52378  53.2135 346.9957 0001221  94.0475 175.6842 15.73159253  1302
STARLINK-3800           
1 52379U 22045BA  22137.91668981  .00024402  00000+0  17778-3 0  9996
2 52379  53.2134 346.9973 0001086 101.7594 167.3240 15.73199554  1305
STARLINK-3793           
1 52380U 22045BB  22137.91668981 -.00072032  00000+0 -51316-3 0  9998
2 52380  53.2136 346.9919 0001472 123.2986 148.3016 15.73201932  1306
